NORAD_CAT_ID,OBJECT_NAME,OBJECT_TYPE,EPOCH,MEAN_MOTION,ECCENTRICITY,INCLINATION,RA_OF_ASC_NODE,ARG_OF_PERICENTER,MEAN_ANOMALY,BSTAR,MEAN_MOTION_DOT,MEAN_MOTION_DDOT,TLE_LINE0,TLE_LINE1,TLE_LINE2,SEMIMAJOR_AXIS,PERIOD,APOGEE,PERIGEE,DECAYED
49413.0,STARLINK-3157,PAYLOAD,2024-01-19 14:25:08,15.08856112,0.0001628,53.2159,121.0854,73.0632,287.0538,8.5669e-05,1.076e-05,0.0,0 STARLINK-3157,1 49413U 21104F   24019.60079199  .00001076  00000-0  85669-4 0  9998,2 49413  53.2159 121.0854 0001628  73.0632 287.0538 15.08856112121001,6917.831,95.437,540.822,538.57,0.0
49413.0,STARLINK-3157,PAYLOAD,2024-01-20 11:05:10,15.08842939,0.0001546,53.2172,117.2182,86.5916,273.5253,-5.1493e-05,-1.108e-05,0.0,0 STARLINK-3157,1 49413U 21104F   24020.46192312 -.00001108  00000-0 -51493-4 0  9993,2 49413  53.2172 117.2182 0001546  86.5916 273.5253 15.08842939122221,6917.871,95.437,540.806,538.667,0.0
49413.0,STARLINK-3157,PAYLOAD,2024-01-20 12:40:33,15.08835255,0.0001472,53.218,116.9219,80.9953,279.1206,6.3894e-05,7.29e-06,0.0,0 STARLINK-3157,1 49413U 21104F   24020.52816451  .00000729  00000-0  63894-4 0  9991,2 49413  53.2180 116.9219 0001472  80.9953 279.1206 15.08835255121147,6917.895,95.438,540.778,538.742,0.0
49413.0,STARLINK-3157,PAYLOAD,2024-01-20 15:51:19,15.08845626,0.000159,53.2173,116.3257,83.2792,276.8381,-4.8901e-06,-3.66e-06,0.0,0 STARLINK-3157,1 49413U 21104F   24020.66064038 -.00000366  00000-0 -48901-5 0  9994,2 49413  53.2173 116.3257 0001590  83.2792 276.8381 15.08845626121166,6917.863,95.437,540.828,538.628,0.0
49413.0,STARLINK-3157,PAYLOAD,2024-01-21 12:31:19,15.08849596,0.0001613,53.2173,112.4595,86.2944,273.8233,-5.5668e-06,-3.77e-06,0.0,0 STARLINK-3157,1 49413U 21104F   24021.52175770 -.00000377  00000-0 -55668-5 0  9996,2 49413  53.2173 112.4595 0001613  86.2944 273.8233 15.08849596122384,6917.851,95.437,540.832,538.6,0.0
49413.0,STARLINK-3157,PAYLOAD,2024-01-21 15:42:05,15.08845274,0.0001506,53.2168,111.8632,110.0886,250.0268,0.00016705,2.372e-05,0.0,0 STARLINK-3157,1 49413U 21104F   24021.65423400  .00002372  00000-0  16705-3 0  9998,2 49413  53.2168 111.8632 0001506 110.0886 250.0268 15.08845274121311,6917.864,95.437,540.771,538.687,0.0
49413.0,STARLINK-3157,PAYLOAD,2024-01-22 06:00:34,15.08841692,0.0001545,53.2177,109.1805,138.5885,221.5225,-2.7101e-05,-7.19e-06,0.0,0 STARLINK-3157,1 49413U 21104F   24022.25040178 -.00000719  00000-0 -27101-4 0  9990,2 49413  53.2177 109.1805 0001545 138.5885 221.5225 15.08841692121406,6917.875,95.437,540.809,538.671,0.0
49413.0,STARLINK-3157,PAYLOAD,2024-01-22 10:46:43,15.08840468,0.0001523,53.2162,108.2937,118.5263,241.5882,6.4274e-05,7.35e-06,0.0,0 STARLINK-3157,1 49413U 21104F   24022.44911987  .00000735  00000-0  64274-4 0  9994,2 49413  53.2162 108.2937 0001523 118.5263 241.5882 15.08840468122525,6917.879,95.438,540.798,538.69,0.0
49413.0,STARLINK-3157,PAYLOAD,2024-01-22 12:22:07,15.08840133,0.0001592,53.2175,107.9989,100.948,259.1691,7.9741e-05,9.81e-06,0.0,0 STARLINK-3157,1 49413U 21104F   24022.51536136  .00000981  00000-0  79741-4 0  9999,2 49413  53.2175 107.9989 0001592 100.9480 259.1691 15.08840133121446,6917.88,95.438,540.846,538.644,0.0
49413.0,STARLINK-3157,PAYLOAD,2024-01-23 10:37:31,15.08845959,0.000151,53.2172,103.8385,104.0258,256.0902,9.3495e-06,-1.39e-06,0.0,0 STARLINK-3157,1 49413U 21104F   24023.44272059 -.00000139  00000-0  93495-5 0  9992,2 49413  53.2172 103.8385 0001510 104.0258 256.0902 15.08845959121583,6917.862,95.437,540.772,538.683,0.0
49413.0,STARLINK-3157,PAYLOAD,2024-01-24 10:28:18,15.08835059,0.0001786,53.218,99.3801,111.4266,248.6917,1.6852e-05,-2e-07,0.0,0 STARLINK-3157,1 49413U 21104F   24024.43632922 -.00000020  00000-0  16852-4 0  9991,2 49413  53.2180  99.3801 0001786 111.4266 248.6917 15.08835059122821,6917.895,95.438,540.996,538.525,0.0
49413.0,STARLINK-3157,PAYLOAD,2024-01-25 11:54:29,15.08813286,0.000158,53.2161,94.6184,87.3437,272.7736,0.00050268,7.715e-05,0.0,0 STARLINK-3157,1 49413U 21104F   24025.49617443  .00007715  00000-0  50268-3 0  9994,2 49413  53.2161  94.6184 0001580  87.3437 272.7736 15.08813286122987,6917.962,95.439,540.92,538.734,0.0
49413.0,STARLINK-3157,PAYLOAD,2024-01-26 11:45:16,15.08803289,0.0002001,53.2175,90.16,63.9941,296.1257,0.00073732,0.00011454,0.0,0 STARLINK-3157,1 49413U 21104F   24026.48977876  .00011454  00000-0  73732-3 0  9999,2 49413  53.2175  90.1600 0002001  63.9941 296.1257 15.08803289122042,6917.993,95.44,541.242,538.473,0.0
49413.0,STARLINK-3157,PAYLOAD,2024-01-27 11:36:03,15.0884184,0.0002029,53.2175,85.697,59.5978,300.5214,5.4034e-05,5.72e-06,0.0,0 STARLINK-3157,1 49413U 21104F   24027.48337384  .00000572  00000-0  54034-4 0  9998,2 49413  53.2175  85.6970 0002029  59.5978 300.5214 15.08841840123287,6917.875,95.437,541.143,538.336,0.0
49413.0,STARLINK-3157,PAYLOAD,2024-01-28 13:02:13,15.08844421,0.0002064,53.2182,80.9342,61.4387,298.6813,3.218e-05,2.24e-06,0.0,0 STARLINK-3157,1 49413U 21104F   24028.54321246  .00000224  00000-0  32180-4 0  9998,2 49413  53.2182  80.9342 0002064  61.4387 298.6813 15.08844421122358,6917.867,95.437,541.16,538.304,0.0
49413.0,STARLINK-3157,PAYLOAD,2024-01-29 09:42:14,15.08842361,0.0001603,53.2167,77.0658,79.6155,280.5017,3.9384e-06,-2.25e-06,0.0,0 STARLINK-3157,1 49413U 21104F   24029.40433385 -.00000225  00000-0  39384-5 0  9998,2 49413  53.2167  77.0658 0001603  79.6155 280.5017 15.08842361122481,6917.873,95.437,540.847,538.629,0.0
49413.0,STARLINK-3157,PAYLOAD,2024-01-30 09:33:01,15.08840638,0.0001722,53.2173,72.6068,101.1062,259.0124,6.5994e-05,7.62e-06,0.0,0 STARLINK-3157,1 49413U 21104F   24030.39793295  .00000762  00000-0  65994-4 0  9997,2 49413  53.2173  72.6068 0001722 101.1062 259.0124 15.08840638123727,6917.878,95.438,540.935,538.552,0.0
49413.0,STARLINK-3157,PAYLOAD,2024-01-31 09:23:48,15.0883991,0.0001709,53.2172,68.1532,95.6632,264.4555,6.7646e-05,7.89e-06,0.0,0 STARLINK-3157,1 49413U 21104F   24031.39153508  .00000789  00000-0  67646-4 0  9990,2 49413  53.2172  68.1532 0001709  95.6632 264.4555 15.08839910122781,6917.881,95.438,540.928,538.563,0.0
49413.0,STARLINK-3157,PAYLOAD,2024-02-01 07:39:12,15.08836457,0.000174,53.2174,63.989,98.7682,261.3507,2.2535e-05,7.1e-07,0.0,0 STARLINK-3157,1 49413U 21104F   24032.31889938  .00000071  00000-0  22535-4 0  9998,2 49413  53.2174  63.9890 0001740  98.7682 261.3507 15.08836457124011,6917.891,95.438,540.96,538.553,0.0
49413.0,STARLINK-3157,PAYLOAD,2024-02-02 10:40:46,15.08841518,0.0001637,53.2169,58.9348,91.4427,268.6753,5.4778e-05,5.84e-06,0.0,0 STARLINK-3157,1 49413U 21104F   24033.44497720  .00000584  00000-0  54778-4 0  9990,2 49413  53.2169  58.9348 0001637  91.4427 268.6753 15.08841518124184,6917.876,95.437,540.873,538.608,0.0
49413.0,STARLINK-3157,PAYLOAD,2024-02-03 08:56:10,15.08840878,0.0001671,53.2171,54.7722,90.5946,269.5238,8.1339e-05,1.007e-05,0.0,0 STARLINK-3157,1 49413U 21104F   24034.37233858  .00001007  00000-0  81339-4 0  9997,2 49413  53.2171  54.7722 0001671  90.5946 269.5238 15.08840878123232,6917.878,95.437,540.899,538.587,0.0
49413.0,STARLINK-3157,PAYLOAD,2024-02-03 18:28:28,15.08841997,0.0001837,53.2176,52.9885,81.2847,278.8353,7.7754e-05,9.5e-06,0.0,0 STARLINK-3157,1 49413U 21104F   24034.76977889  .00000950  00000-0  77754-4 0  9991,2 49413  53.2176  52.9885 0001837  81.2847 278.8353 15.08841997124389,6917.874,95.437,541.01,538.468,0.0
49413.0,STARLINK-3157,PAYLOAD,2024-02-04 07:11:33,15.08847535,0.0001885,53.2178,50.6103,79.9231,280.1974,8.7364e-05,1.103e-05,0.0,0 STARLINK-3157,1 49413U 21104F   24035.29969473  .00001103  00000-0  87364-4 0  9999,2 49413  53.2178  50.6103 0001885  79.9231 280.1974 15.08847535123370,6917.857,95.437,541.026,538.418,0.0
49413.0,STARLINK-3157,PAYLOAD,2024-02-05 07:02:20,15.08843546,0.0001681,53.2166,46.1485,84.2488,275.8696,4.4171e-05,4.15e-06,0.0,0 STARLINK-3157,1 49413U 21104F   24036.29329591  .00000415  00000-0  44171-4 0  9995,2 49413  53.2166  46.1485 0001681  84.2488 275.8696 15.08843546124615,6917.87,95.437,540.897,538.572,0.0
49413.0,STARLINK-3157,PAYLOAD,2024-02-06 03:42:21,15.08837696,0.0001617,53.216,42.2829,83.4507,276.6669,-1.3632e-05,-5.05e-06,0.0,0 STARLINK-3157,1 49413U 21104F   24037.15442082 -.00000505  00000-0 -13632-4 0  9992,2 49413  53.2160  42.2829 0001617  83.4507 276.6669 15.08837696124742,6917.887,95.438,540.871,538.634,0.0
49413.0,STARLINK-3157,PAYLOAD,2024-02-06 06:53:08,15.08840766,0.0001735,53.2169,41.6881,88.2186,271.9005,-1.5368e-05,-5.33e-06,0.0,0 STARLINK-3157,1 49413U 21104F   24037.28689905 -.00000533  00000-0 -15368-4 0  9992,2 49413  53.2169  41.6881 0001735  88.2186 271.9005 15.08840766123674,6917.878,95.438,540.943,538.543,0.0
49413.0,STARLINK-3157,PAYLOAD,2024-02-07 03:33:08,15.08863621,0.0001555,53.2175,37.8219,88.4394,271.6777,-0.00025171,-4.294e-05,0.0,0 STARLINK-3157,1 49413U 21104F   24038.14801624 -.00004294  00000-0 -25171-3 0  9992,2 49413  53.2175  37.8219 0001555  88.4394 271.6777 15.08863621124899,6917.808,95.436,540.749,538.597,0.0
49413.0,STARLINK-3157,PAYLOAD,2024-02-07 06:43:54,15.08844807,0.0001674,53.2179,37.2272,98.8243,261.2939,1.9046e-05,1.5e-07,0.0,0 STARLINK-3157,1 49413U 21104F   24038.28049621  .00000015  00000-0  19046-4 0  9998,2 49413  53.2179  37.2272 0001674  98.8243 261.2939 15.08844807124919,6917.866,95.437,540.889,538.573,0.0
49413.0,STARLINK-3157,PAYLOAD,2024-02-07 16:16:13,15.08842359,0.000164,53.2176,35.4431,92.3875,267.7305,8.9813e-06,-1.45e-06,0.0,0 STARLINK-3157,1 49413U 21104F   24038.67793814 -.00000145  00000-0  89813-5 0  9996,2 49413  53.2176  35.4431 0001640  92.3875 267.7305 15.08842359123889,6917.873,95.437,540.873,538.604,0.0
49413.0,STARLINK-3157,PAYLOAD,2024-02-08 00:13:10,15.08831741,0.0001955,53.2198,33.9601,104.1894,255.9315,4.5825e-05,4.41e-06,0.0,0 STARLINK-3157,1 49413U 21104F   24039.00914607  .00000441  00000-0  45825-4 0  9991,2 49413  53.2198  33.9601 0001955 104.1894 255.9315 15.08831741125028,6917.906,95.438,541.123,538.418,0.0
